TDRS 3                  
1 19548U 88091B   25068.10423468 -.00000308  00000+0  00000+0 0  9992
2 19548  12.9572 344.1012 0041337 343.5375 188.0153  1.00277537120728
HST                     
1 20580U 90037B   25068.87515437  .00010959  00000+0  43718-3 0  9994
2 20580  28.4695 357.3585 0002159  60.5953 299.4856 15.23529329717517
TDRS 5                  
1 21639U 91054B   25068.31022789 -.00000168  00000+0  00000+0 0  9997
2 21639  14.1275 357.1818 0004105 341.6462 209.9595  0.99949690123057
TDRS 6                  
1 22314U 93003B   25068.25111421 -.00000305  00000+0  00000+0 0  9992
2 22314  14.1711   0.4759 0006471 177.3195  33.9281  1.00274735117740
TDRS 7                  
1 23613U 95035B   25067.79141841 -.00000212  00000+0  00000+0 0  9996
2 23613  13.5707 351.3883 0025570  66.5271 118.6452  1.00272309108580
ISS (ZARYA)             
1 25544U 98067A   25068.89181685  .00014826  00000+0  26852-3 0  9993
2 25544  51.6353  78.8409 0006401   3.2120 356.8909 15.49852573499764
TERRA                   
1 25994U 99068A   25068.91216530  .00000989  00000+0  21304-3 0  9997
2 25994  98.0107 130.2031 0001181 224.9399 246.1439 14.60521471341946
TDRS 8                  
1 26388U 00034A   25065.33196628  .00000087  00000+0  00000+0 0  9993
2 26388  11.9506  35.1375 0005685 259.3281 182.0122  1.00281383 90493
TIMED                   
1 26998U 01055B   25068.63192598  .00002734  00000+0  26357-3 0  9990
2 26998  74.0679  89.1727 0001573 313.8983  46.2071 14.93445662261423
AQUA                    
1 27424U 02022A   25068.90697057  .00002368  00000+0  49342-3 0  9992
2 27424  98.3663  26.0921 0001589  54.9870 337.5935 14.60914924215454
TDRS 10                 
1 27566U 02055A   25067.34970059  .00000074  00000+0  00000+0 0  9994
2 27566  10.2611  45.3469 0010195 302.8461 132.9813  1.00271349 81564
SORCE                   
1 27651U 03004A   25068.90445522  .00007571  00000+0  61650-3 0  9990
2 27651  39.9933  22.6127 0020233 312.6043  47.3043 14.99393147202081
AURA                    
1 28376U 04026A   25068.84902721  .00002311  00000+0  49084-3 0  9996
2 28376  98.2837  18.5818 0001420  67.9868 292.1482 14.60060523 98425
SWIFT                   
1 28485U 04047A   25068.24858129  .00034257  00000+0  10230-2 0  9990
2 28485  20.5560  65.1861 0006486 142.9098 217.1790 15.32790078114703
THEMIS A                
1 30580U 07004A   25068.73299054 -.00000010  00000+0  00000+0 0  9997
2 30580   5.8193 237.5220 8438887  17.3743 359.0997  0.87838051 37198
THEMIS D                
1 30797U 07004D   25068.69959126  .00000073  00000+0  00000+0 0  9993
2 30797   1.0544 220.8319 8412253  38.2908 337.7472  0.87836368 36980
THEMIS E                
1 30798U 07004E   25068.88427044  .00000023  00000+0  00000+0 0  9999
2 30798   3.4161 272.1070 8403569 347.8364  48.7195  0.87837322 61835
