[{"OBJECT_NAME":"TDRS 3","OBJECT_ID":"1988-091B","EPOCH":"2025-03-09T02:30:05.876352","MEAN_MOTION":1.00277537,"ECCENTRICITY":0.0041337,"INCLINATION":12.9572,"RA_OF_ASC_NODE":344.1012,"ARG_OF_PERICENTER":343.5375,"MEAN_ANOMALY":188.0153,"EPHEMERIS_TYPE":0,"CLASSIFICATION_TYPE":"U","NORAD_CAT_ID":19548,"ELEMENT_SET_NO":999,"REV_AT_EPOCH":12072,"BSTAR":0,"MEAN_MOTION_DOT":-3.08e-6,"MEAN_MOTION_DDOT":0},{"OBJECT_NAME":"HST","OBJECT_ID":"1990-037B","EPOCH":"2025-03-09T21:00:13.337568","MEAN_MOTION":15.23529329,"ECCENTRICITY":0.0002159,"INCLINATION":28.4695,"RA_OF_ASC_NODE":357.3585,"ARG_OF_PERICENTER":60.5953,"MEAN_ANOMALY":299.4856,"EPHEMERIS_TYPE":0,"CLASSIFICATION_TYPE":"U","NORAD_CAT_ID":20580,"ELEMENT_SET_NO":999,"REV_AT_EPOCH":71751,"BSTAR":0.00043718,"MEAN_MOTION_DOT":0.00010959,"MEAN_MOTION_DDOT":0},{"OBJECT_NAME":"TDRS 5","OBJECT_ID":"1991-054B","EPOCH":"2025-03-09T07:26:43.689696","MEAN_MOTION":0.9994969,"ECCENTRICITY":0.0004105,"INCLINATION":14.1275,"RA_OF_ASC_NODE":357.1818,"ARG_OF_PERICENTER":341.6462,"MEAN_ANOMALY":209.9595,"EPHEMERIS_TYPE":0,"CLASSIFICATION_TYPE":"U","NORAD_CAT_ID":21639,"ELEMENT_SET_NO":999,"REV_AT_EPOCH":12305,"BSTAR":0,"MEAN_MOTION_DOT":-1.68e-6,"MEAN_MOTION_DDOT":0},{"OBJECT_NAME":"TDRS 6","OBJECT_ID":"1993-003B","EPOCH":"2025-03-09T06:01:36.267744","MEAN_MOTION":1.00274735,"ECCENTRICITY":0.0006471,"INCLINATION":14.1711,"RA_OF_ASC_NODE":0.4759,"ARG_OF_PERICENTER":177.3195,"MEAN_ANOMALY":33.9281,"EPHEMERIS_TYPE":0,"CLASSIFICATION_TYPE":"U","NORAD_CAT_ID":22314,"ELEMENT_SET_NO":999,"REV_AT_EPOCH":11774,"BSTAR":0,"MEAN_MOTION_DOT":-3.05e-6,"MEAN_MOTION_DDOT":0},{"OBJECT_NAME":"TDRS 7","OBJECT_ID":"1995-035B","EPOCH":"2025-03-08T18:59:38.550624","MEAN_MOTION":1.00272309,"ECCENTRICITY":0.002557,"INCLINATION":13.5707,"RA_OF_ASC_NODE":351.3883,"ARG_OF_PERICENTER":66.5271,"MEAN_ANOMALY":118.6452,"EPHEMERIS_TYPE":0,"CLASSIFICATION_TYPE":"U","NORAD_CAT_ID":23613,"ELEMENT_SET_NO":999,"REV_AT_EPOCH":10858,"BSTAR":0,"MEAN_MOTION_DOT":-2.12e-6,"MEAN_MOTION_DDOT":0},{"OBJECT_NAME":"ISS (ZARYA)","OBJECT_ID":"1998-067A","EPOCH":"2025-03-09T21:24:12.975840","MEAN_MOTION":15.49852573,"ECCENTRICITY":0.0006401,"INCLINATION":51.6353,"RA_OF_ASC_NODE":78.8409,"ARG_OF_PERICENTER":3.212,"MEAN_ANOMALY":356.8909,"EPHEMERIS_TYPE":0,"CLASSIFICATION_TYPE":"U","NORAD_CAT_ID":25544,"ELEMENT_SET_NO":999,"REV_AT_EPOCH":49976,"BSTAR":0.00026852,"MEAN_MOTION_DOT":0.00014826,"MEAN_MOTION_DDOT":0},{"OBJECT_NAME":"TERRA","OBJECT_ID":"1999-068A","EPOCH":"2025-03-09T21:53:31.081920","MEAN_MOTION":14.60521471,"ECCENTRICITY":0.0001181,"INCLINATION":98.0107,"RA_OF_ASC_NODE":130.2031,"ARG_OF_PERICENTER":224.9399,"MEAN_ANOMALY":246.1439,"EPHEMERIS_TYPE":0,"CLASSIFICATION_TYPE":"U","NORAD_CAT_ID":25994,"ELEMENT_SET_NO":999,"REV_AT_EPOCH":34194,"BSTAR":0.00021304,"MEAN_MOTION_DOT":9.89e-6,"MEAN_MOTION_DDOT":0},{"OBJECT_NAME":"TDRS 8","OBJECT_ID":"2000-034A","EPOCH":"2025-03-06T07:58:01.886592","MEAN_MOTION":1.00281383,"ECCENTRICITY":0.0005685,"INCLINATION":11.9506,"RA_OF_ASC_NODE":35.1375,"ARG_OF_PERICENTER":259.3281,"MEAN_ANOMALY":182.0122,"EPHEMERIS_TYPE":0,"CLASSIFICATION_TYPE":"U","NORAD_CAT_ID":26388,"ELEMENT_SET_NO":999,"REV_AT_EPOCH":9049,"BSTAR":0,"MEAN_MOTION_DOT":8.7e-7,"MEAN_MOTION_DDOT":0},{"OBJECT_NAME":"TIMED","OBJECT_ID":"2001-055B","EPOCH":"2025-03-09T15:09:58.404672","MEAN_MOTION":14.93445662,"ECCENTRICITY":0.0001573,"INCLINATION":74.0679,"RA_OF_ASC_NODE":89.1727,"ARG_OF_PERICENTER":313.8983,"MEAN_ANOMALY":46.2071,"EPHEMERIS_TYPE":0,"CLASSIFICATION_TYPE":"U","NORAD_CAT_ID":26998,"ELEMENT_SET_NO":999,"REV_AT_EPOCH":26142,"BSTAR":0.00026357,"MEAN_MOTION_DOT":2.734e-5,"MEAN_MOTION_DDOT":0},{"OBJECT_NAME":"AQUA","OBJECT_ID":"2002-022A","EPOCH":"2025-03-09T21:46:02.257248","MEAN_MOTION":14.60914924,"ECCENTRICITY":0.0001589,"INCLINATION":98.3663,"RA_OF_ASC_NODE":26.0921,"ARG_OF_PERICENTER":54.987,"MEAN_ANOMALY":337.5935,"EPHEMERIS_TYPE":0,"CLASSIFICATION_TYPE":"U","NORAD_CAT_ID":27424,"ELEMENT_SET_NO":999,"REV_AT_EPOCH":21545,"BSTAR":0.00049342,"MEAN_MOTION_DOT":2.368e-5,"MEAN_MOTION_DDOT":0},{"OBJECT_NAME":"TDRS 10","OBJECT_ID":"2002-055A","EPOCH":"2025-03-08T08:23:34.130976","MEAN_MOTION":1.00271349,"ECCENTRICITY":0.0010195,"INCLINATION":10.2611,"RA_OF_ASC_NODE":45.3469,"ARG_OF_PERICENTER":302.8461,"MEAN_ANOMALY":132.9813,"EPHEMERIS_TYPE":0,"CLASSIFICATION_TYPE":"U","NORAD_CAT_ID":27566,"ELEMENT_SET_NO":999,"REV_AT_EPOCH":8156,"BSTAR":0,"MEAN_MOTION_DOT":7.4e-7,"MEAN_MOTION_DDOT":0},{"OBJECT_NAME":"SORCE","OBJECT_ID":"2003-004A","EPOCH":"2025-03-09T21:42:24.931008","MEAN_MOTION":14.99393147,"ECCENTRICITY":0.0020233,"INCLINATION":39.9933,"RA_OF_ASC_NODE":22.6127,"ARG_OF_PERICENTER":312.6043,"MEAN_ANOMALY":47.3043,"EPHEMERIS_TYPE":0,"CLASSIFICATION_TYPE":"U","NORAD_CAT_ID":27651,"ELEMENT_SET_NO":999,"REV_AT_EPOCH":20208,"BSTAR":0.0006165,"MEAN_MOTION_DOT":7.571e-5,"MEAN_MOTION_DDOT":0},{"OBJECT_NAME":"AURA","OBJECT_ID":"2004-026A","EPOCH":"2025-03-09T20:22:35.950944","MEAN_MOTION":14.60060523,"ECCENTRICITY":0.000142,"INCLINATION":98.2837,"RA_OF_ASC_NODE":18.5818,"ARG_OF_PERICENTER":67.9868,"MEAN_ANOMALY":292.1482,"EPHEMERIS_TYPE":0,"CLASSIFICATION_TYPE":"U","NORAD_CAT_ID":28376,"ELEMENT_SET_NO":999,"REV_AT_EPOCH":9842,"BSTAR":0.00049084,"MEAN_MOTION_DOT":2.311e-5,"MEAN_MOTION_DDOT":0},{"OBJECT_NAME":"SWIFT","OBJECT_ID":"2004-047A","EPOCH":"2025-03-09T05:57:57.423456","MEAN_MOTION":15.32790078,"ECCENTRICITY":0.0006486,"INCLINATION":20.556,"RA_OF_ASC_NODE":65.1861,"ARG_OF_PERICENTER":142.9098,"MEAN_ANOMALY":217.179,"EPHEMERIS_TYPE":0,"CLASSIFICATION_TYPE":"U","NORAD_CAT_ID":28485,"ELEMENT_SET_NO":999,"REV_AT_EPOCH":11470,"BSTAR":0.001023,"MEAN_MOTION_DOT":0.00034257,"MEAN_MOTION_DDOT":0},{"OBJECT_NAME":"THEMIS A","OBJECT_ID":"2007-004A","EPOCH":"2025-03-09T17:35:30.382656","MEAN_MOTION":0.87838051,"ECCENTRICITY":0.8438887,"INCLINATION":5.8193,"RA_OF_ASC_NODE":237.522,"ARG_OF_PERICENTER":17.3743,"MEAN_ANOMALY":359.0997,"EPHEMERIS_TYPE":0,"CLASSIFICATION_TYPE":"U","NORAD_CAT_ID":30580,"ELEMENT_SET_NO":999,"REV_AT_EPOCH":3719,"BSTAR":0,"MEAN_MOTION_DOT":-1.0e-7,"MEAN_MOTION_DDOT":0},{"OBJECT_NAME":"THEMIS D","OBJECT_ID":"2007-004D","EPOCH":"2025-03-09T16:47:24.684864","MEAN_MOTION":0.87836368,"ECCENTRICITY":0.8412253,"INCLINATION":1.0544,"RA_OF_ASC_NODE":220.8319,"ARG_OF_PERICENTER":38.2908,"MEAN_ANOMALY":337.7472,"EPHEMERIS_TYPE":0,"CLASSIFICATION_TYPE":"U","NORAD_CAT_ID":30797,"ELEMENT_SET_NO":999,"REV_AT_EPOCH":3698,"BSTAR":0,"MEAN_MOTION_DOT":7.3e-7,"MEAN_MOTION_DDOT":0},{"OBJECT_NAME":"THEMIS E","OBJECT_ID":"2007-004E","EPOCH":"2025-03-09T21:13:20.966016","MEAN_MOTION":0.87837322,"ECCENTRICITY":0.8403569,"INCLINATION":3.4161,"RA_OF_ASC_NODE":272.107,"ARG_OF_PERICENTER":347.8364,"MEAN_ANOMALY":48.7195,"EPHEMERIS_TYPE":0,"CLASSIFICATION_TYPE":"U","NORAD_CAT_ID":30798,"ELEMENT_SET_NO":999,"REV_AT_EPOCH":6183,"BSTAR":0,"MEAN_MOTION_DOT":2.3e-7,"MEAN_MOTION_DDOT":0}]
